LANDSAT 9               
1 49260U 21088A   24125.15376963  .00000490  00000+0  11881-3 0  9998
2 49260  98.1889 195.5141 0001363  89.4347 270.7008 14.57107857138270
